{
    "CCSDS_OMM_VERS": "3.0",
    "COMMENT": "GENERATED VIA SPACE-TRACK.ORG API",
    "CREATION_DATE": "2025-05-23T14:46:20",
    "ORIGINATOR": "18 SPCS",
    "OBJECT_NAME": "QZS-1 (MICHIBIKI)",
    "OBJECT_ID": "2010-045A",
    "CENTER_NAME": "EARTH",
    "REF_FRAME": "TEME",
    "TIME_SYSTEM": "UTC",
    "MEAN_ELEMENT_THEORY": "SGP4",
    "EPOCH": "2025-05-23T07:04:09.672960",
    "MEAN_MOTION": "0.87715049",
    "ECCENTRICITY": "0.00025620",
    "INCLINATION": "43.7047",
    "RA_OF_ASC_NODE": "120.6760",
    "ARG_OF_PERICENTER": "11.0885",
    "MEAN_ANOMALY": "173.2810",
    "EPHEMERIS_TYPE": "0",
    "CLASSIFICATION_TYPE": "U",
    "NORAD_CAT_ID": "37158",
    "ELEMENT_SET_NO": "999",
    "REV_AT_EPOCH": "5296",
    "BSTAR": "0.00000000000000",
    "MEAN_MOTION_DOT": "0.00000047",
    "MEAN_MOTION_DDOT": "0.0000000000000",
    "SEMIMAJOR_AXIS": "46098.391",
    "PERIOD": "1641.680",
    "APOAPSIS": "39732.066",
    "PERIAPSIS": "39708.446",
    "OBJECT_TYPE": "PAYLOAD",
    "RCS_SIZE": "LARGE",
    "COUNTRY_CODE": "JPN",
    "LAUNCH_DATE": "2010-09-11",
    "SITE": "TNSTA",
    "DECAY_DATE": null,
    "FILE": "4737008",
    "GP_ID": "288175407",
    "TLE_LINE0": "0 QZS-1 (MICHIBIKI)",
    "TLE_LINE1": "1 37158U 10045A   25143.29455640  .00000047  00000-0  00000+0 0  9994",
    "TLE_LINE2": "2 37158  43.7047 120.6760 0002562  11.0885 173.2810  0.87715049 52966"
}